{
  "norad_id": 54805,
  "name": "STARLINK-5417",
  "history": [
    {
      "epoch": "2026-03-28T21:35:11.061312",
      "apogee_km": 540.7831135231663,
      "perigee_km": 538.6503392193263,
      "latitude_deg": -3.313092085893185,
      "longitude_deg": 106.84562367992476,
      "semi_major_axis_km": 6917.853726371246,
      "eccentricity": 0.00015415,
      "inclination_deg": 53.2169,
      "raan_deg": 302.5976,
      "arg_perigee_deg": 81.6448,
      "mean_anomaly_deg": 278.4719,
      "mean_motion_rev_day": 15.08848723
    },
    {
      "epoch": "2026-03-29T00:45:57.176928",
      "apogee_km": 540.7934371315087,
      "perigee_km": 538.6323008324389,
      "latitude_deg": -43.58383236289914,
      "longitude_deg": 119.56352992006578,
      "semi_major_axis_km": 6917.8498689819735,
      "eccentricity": 0.0001562,
      "inclination_deg": 53.2167,
      "raan_deg": 302.0027,
      "arg_perigee_deg": 80.6808,
      "mean_anomaly_deg": 279.4361,
      "mean_motion_rev_day": 15.08849985
    }
  ]
}